start=new Date('2022-09-17T00:00:00.000Z').valueOf();
sats=[{"FILE":"3575787","MEAN_MOTION":"15.07219169","EPOCH":"2022-09-16T22:06:53.000064","COUNTRY_CODE":"US","BSTAR":"0.00138140000000","EPHEMERIS_TYPE":"0","INCLINATION":"53.0538","GP_ID":"212746130","LAUNCH_DATE":"2020-06-13","REF_FRAME":"TEME","CENTER_NAME":"EARTH","TLE_LINE2":"2 45779  53.0538 136.7726 0002399 103.9414 256.1842 15.07219169125361","SITE":"AFETR","OBJECT_NAME":"STARLINK-1492","CLASSIFICATION_TYPE":"U","MEAN_MOTION_DOT":"0.00020816","APOAPSIS":"546.365","MEAN_ANOMALY":"256.1842","PERIOD":"95.540","NORAD_CAT_ID":"45779","OBJECT_ID":"2020-038BB","MEAN_MOTION_DDOT":"0.0000000000000","REV_AT_EPOCH":"12536","ELEMENT_SET_NO":"999","RCS_SIZE":"LARGE","ECCENTRICITY":"0.00023990","ARG_OF_PERICENTER":"103.9414","DECAY_DATE":null,"SEMIMAJOR_AXIS":"6922.839","OBJECT_TYPE":"PAYLOAD","MEAN_ELEMENT_THEORY":"SGP4","TLE_LINE1":"1 45779U 20038BB  22259.92144676  .00020816  00000-0  13814-2 0  9990","RA_OF_ASC_NODE":"136.7726","TIME_SYSTEM":"UTC","PERIAPSIS":"543.043"},{"REF_FRAME":"TEME","LAUNCH_DATE":"2020-06-13","GP_ID":"212744880","INCLINATION":"53.0541","BSTAR":"-0.00011081000000","EPHEMERIS_TYPE":"0","COUNTRY_CODE":"US","EPOCH":"2022-09-16T20:55:53.252832","FILE":"3575787","MEAN_MOTION":"15.06383668","APOAPSIS":"548.172","MEAN_MOTION_DOT":"-0.00001931","CLASSIFICATION_TYPE":"U","TLE_LINE2":"2 45780  53.0541 137.0450 0001312  84.0418 276.0720 15.06383668125352","SITE":"AFETR","OBJECT_NAME":"STARLINK-1496","CENTER_NAME":"EARTH","RCS_SIZE":"LARGE","ELEMENT_SET_NO":"999","REV_AT_EPOCH":"12535","MEAN_MOTION_DDOT":"0.0000000000000","OBJECT_ID":"2020-038BC","PERIOD":"95.593","MEAN_ANOMALY":"276.0720","NORAD_CAT_ID":"45780","PERIAPSIS":"546.355","TIME_SYSTEM":"UTC","RA_OF_ASC_NODE":"137.0450","TLE_LINE1":"1 45780U 20038BC  22259.87214413 -.00001931  00000-0 -11081-3 0  9997","MEAN_ELEMENT_THEORY":"SGP4","DECAY_DATE":null,"OBJECT_TYPE":"PAYLOAD","SEMIMAJOR_AXIS":"6925.399","ARG_OF_PERICENTER":"84.0418","ECCENTRICITY":"0.00013120"},{"CLASSIFICATION_TYPE":"U","SITE":"AFETR","TLE_LINE2":"2 45781  53.0539 136.9438 0001288  66.8575 293.2549 15.06405983125364","OBJECT_NAME":"STARLINK-1497","CENTER_NAME":"EARTH","APOAPSIS":"548.087","MEAN_MOTION_DOT":"0.00001476","COUNTRY_CODE":"US","EPOCH":"2022-09-16T21:33:01.309248","FILE":"3575787","MEAN_MOTION":"15.06405983","REF_FRAME":"TEME","LAUNCH_DATE":"2020-06-13","GP_ID":"212745130","INCLINATION":"53.0539","BSTAR":"0.00011793000000","EPHEMERIS_TYPE":"0","MEAN_ELEMENT_THEORY":"SGP4","SEMIMAJOR_AXIS":"6925.330","DECAY_DATE":null,"OBJECT_TYPE":"PAYLOAD","ARG_OF_PERICENTER":"66.8575","ECCENTRICITY":"0.00012880","PERIAPSIS":"546.303","TIME_SYSTEM":"UTC","RA_OF_ASC_NODE":"136.9438","TLE_LINE1":"1 45781U 20038BD  22259.89793182  .00001476  00000-0  11793-3 0  9997","REV_AT_EPOCH":"12536","MEAN_MOTION_DDOT":"0.0000000000000","OBJECT_ID":"2020-038BD","MEAN_ANOMALY":"293.2549","PERIOD":"95.592","NORAD_CAT_ID":"45781","RCS_SIZE":"LARGE","ELEMENT_SET_NO":"999"},{"BSTAR":"-0.00186720000000","EPHEMERIS_TYPE":"0","INCLINATION":"53.0519","GP_ID":"212746379","REF_FRAME":"TEME","LAUNCH_DATE":"2020-06-13","FILE":"3575787","MEAN_MOTION":"15.07736607","EPOCH":"2022-09-16T20:39:48.118176","COUNTRY_CODE":"US","MEAN_MOTION_DOT":"-0.00029009","APOAPSIS":"544.942","TLE_LINE2":"2 45782  53.0519 136.8013 0002633  40.2020 319.9164 15.07736607125378","SITE":"AFETR","OBJECT_NAME":"STARLINK-1498","CENTER_NAME":"EARTH","CLASSIFICATION_TYPE":"U","ELEMENT_SET_NO":"999","RCS_SIZE":"LARGE","MEAN_ANOMALY":"319.9164","PERIOD":"95.507","NORAD_CAT_ID":"45782","OBJECT_ID":"2020-038BE","MEAN_MOTION_DDOT":"0.0000000000000","REV_AT_EPOCH":"12537","TLE_LINE1":"1 45782U 20038BE  22259.86097359 -.00029009  00000-0 -18672-2 0  9994","RA_OF_ASC_NODE":"136.8013","TIME_SYSTEM":"UTC","PERIAPSIS":"541.298","ARG_OF_PERICENTER":"40.2020","ECCENTRICITY":"0.00026330","DECAY_DATE":null,"SEMIMAJOR_AXIS":"6921.255","OBJECT_TYPE":"PAYLOAD","MEAN_ELEMENT_THEORY":"SGP4"},{"TLE_LINE1":"1 45783U 20038BF  22259.89425587  .00001585  00000-0  12530-3 0  9991","RA_OF_ASC_NODE":"136.9562","TIME_SYSTEM":"UTC","PERIAPSIS":"546.274","ARG_OF_PERICENTER":"73.1202","ECCENTRICITY":"0.00013880","DECAY_DATE":null,"SEMIMAJOR_AXIS":"6925.371","OBJECT_TYPE":"PAYLOAD","MEAN_ELEMENT_THEORY":"SGP4","ELEMENT_SET_NO":"999","RCS_SIZE":"LARGE","PERIOD":"95.593","MEAN_ANOMALY":"286.9939","NORAD_CAT_ID":"45783","OBJECT_ID":"2020-038BF","REV_AT_EPOCH":"12537","MEAN_MOTION_DDOT":"0.0000000000000","MEAN_MOTION_DOT":"0.00001585","APOAPSIS":"548.197","TLE_LINE2":"2 45783  53.0547 136.9562 0001388  73.1202 286.9939 15.06392840125372","SITE":"AFETR","CENTER_NAME":"EARTH","OBJECT_NAME":"STARLINK-1505","CLASSIFICATION_TYPE":"U","BSTAR":"0.00012530000000","EPHEMERIS_TYPE":"0","INCLINATION":"53.0547","GP_ID":"212746630","LAUNCH_DATE":"2020-06-13","REF_FRAME":"TEME","FILE":"3575787","MEAN_MOTION":"15.06392840","EPOCH":"2022-09-16T21:27:43.707168","COUNTRY_CODE":"US"},{"TLE_LINE2":"2 45784  53.0551 137.0560 0001276  91.8298 268.2837 15.06393746125361","CENTER_NAME":"EARTH","SITE":"AFETR","OBJECT_NAME":"STARLINK-1510","CLASSIFICATION_TYPE":"U","MEAN_MOTION_DOT":"0.00003330","APOAPSIS":"548.116","EPOCH":"2022-09-16T20:50:33.717120","MEAN_MOTION":"15.06393746","FILE":"3575787","COUNTRY_CODE":"US","INCLINATION":"53.0551","EPHEMERIS_TYPE":"0","BSTAR":"0.00024240000000","LAUNCH_DATE":"2020-06-13","REF_FRAME":"TEME","GP_ID":"212745379","OBJECT_TYPE":"PAYLOAD","DECAY_DATE":null,"SEMIMAJOR_AXIS":"6925.368","ARG_OF_PERICENTER":"91.8298","ECCENTRICITY":"0.00012760","MEAN_ELEMENT_THEORY":"SGP4","TLE_LINE1":"1 45784U 20038BG  22259.86844580  .00003330  00000-0  24240-3 0  9998","PERIAPSIS":"546.349","TIME_SYSTEM":"UTC","RA_OF_ASC_NODE":"137.0560","OBJECT_ID":"2020-038BG","NORAD_CAT_ID":"45784","MEAN_ANOMALY":"268.2837","PERIOD":"95.593","REV_AT_EPOCH":"12536","MEAN_MOTION_DDOT":"0.0000000000000","RCS_SIZE":"LARGE","ELEMENT_SET_NO":"999"},{"COUNTRY_CODE":"US","FILE":"3575787","MEAN_MOTION":"15.06392138","EPOCH":"2022-09-16T21:59:34.661760","GP_ID":"212745629","REF_FRAME":"TEME","LAUNCH_DATE":"2020-06-13","BSTAR":"-0.00000847700000","EPHEMERIS_TYPE":"0","INCLINATION":"53.0542","CLASSIFICATION_TYPE":"U","TLE_LINE2":"2 45785  53.0542 136.8587 0001817  67.9857 292.1325 15.06392138125377","OBJECT_NAME":"STARLINK-1512","SITE":"AFETR","CENTER_NAME":"EARTH","APOAPSIS":"548.496","MEAN_MOTION_DOT":"-0.00000408","MEAN_MOTION_DDOT":"0.0000000000000","REV_AT_EPOCH":"12537","PERIOD":"95.593","MEAN_ANOMALY":"292.1325","NORAD_CAT_ID":"45785","OBJECT_ID":"2020-038BH","ELEMENT_SET_NO":"999","RCS_SIZE":"LARGE","MEAN_ELEMENT_THEORY":"SGP4","ARG_OF_PERICENTER":"67.9857","ECCENTRICITY":"0.00018170","DECAY_DATE":null,"OBJECT_TYPE":"PAYLOAD","SEMIMAJOR_AXIS":"6925.373","TIME_SYSTEM":"UTC","RA_OF_ASC_NODE":"136.8587","PERIAPSIS":"545.979","TLE_LINE1":"1 45785U 20038BH  22259.91637340 -.00000408  00000-0 -84770-5 0  9990"},{"ELEMENT_SET_NO":"999","RCS_SIZE":"LARGE","MEAN_MOTION_DDOT":"0.0000000000000","REV_AT_EPOCH":"12537","MEAN_ANOMALY":"217.3508","PERIOD":"95.594","NORAD_CAT_ID":"45786","OBJECT_ID":"2020-038BJ","RA_OF_ASC_NODE":"136.9245","TIME_SYSTEM":"UTC","PERIAPSIS":"546.210","TLE_LINE1":"1 45786U 20038BJ  22259.90162884 -.00010586  00000-0 -69325-3 0  9991","MEAN_ELEMENT_THEORY":"SGP4","ARG_OF_PERICENTER":"142.7589","ECCENTRICITY":"0.00015520","OBJECT_TYPE":"PAYLOAD","DECAY_DATE":null,"SEMIMAJOR_AXIS":"6925.419","GP_ID":"212745881","LAUNCH_DATE":"2020-06-13","REF_FRAME":"TEME","BSTAR":"-0.00069325000000","EPHEMERIS_TYPE":"0","INCLINATION":"53.0484","COUNTRY_CODE":"US","FILE":"3575787","MEAN_MOTION":"15.06376862","EPOCH":"2022-09-16T21:38:20.731776","APOAPSIS":"548.359","MEAN_MOTION_DOT":"-0.00010586","CLASSIFICATION_TYPE":"U","OBJECT_NAME":"STARLINK-1513","TLE_LINE2":"2 45786  53.0484 136.9245 0001552 142.7589 217.3508 15.06376862125373","SITE":"AFETR","CENTER_NAME":"EARTH"},{"MEAN_MOTION_DOT":"-0.00000404","APOAPSIS":"548.302","CENTER_NAME":"EARTH","TLE_LINE2":"2 45787  53.0541 138.0872 0001583  80.5061 279.6107 15.06402596125331","SITE":"AFETR","OBJECT_NAME":"STARLINK-1517","CLASSIFICATION_TYPE":"U","INCLINATION":"53.0541","EPHEMERIS_TYPE":"0","BSTAR":"-0.00000823430000","REF_FRAME":"TEME","LAUNCH_DATE":"2020-06-13","GP_ID":"212746131","EPOCH":"2022-09-16T15:26:47.477184","MEAN_MOTION":"15.06402596","FILE":"3575787","COUNTRY_CODE":"US","TLE_LINE1":"1 45787U 20038BK  22259.64360506 -.00000404  00000-0 -82343-5 0  9999","PERIAPSIS":"546.109","TIME_SYSTEM":"UTC","RA_OF_ASC_NODE":"138.0872","OBJECT_TYPE":"PAYLOAD","DECAY_DATE":null,"SEMIMAJOR_AXIS":"6925.341","ARG_OF_PERICENTER":"80.5061","ECCENTRICITY":"0.00015830","MEAN_ELEMENT_THEORY":"SGP4","RCS_SIZE":"LARGE","ELEMENT_SET_NO":"999","OBJECT_ID":"2020-038BK","NORAD_CAT_ID":"45787","MEAN_ANOMALY":"279.6107","PERIOD":"95.592","MEAN_MOTION_DDOT":"0.0000000000000","REV_AT_EPOCH":"12533"},{"COUNTRY_CODE":"US","EPOCH":"2022-09-16T21:10:28.382016","FILE":"3575787","MEAN_MOTION":"15.06393945","REF_FRAME":"TEME","LAUNCH_DATE":"2020-08-07","GP_ID":"212745905","INCLINATION":"53.0571","BSTAR":"-0.00000995770000","EPHEMERIS_TYPE":"0","CLASSIFICATION_TYPE":"U","SITE":"AFETR","TLE_LINE2":"2 46027  53.0571  67.0057 0001169  87.3138 272.7985 15.06393945117491","CENTER_NAME":"EARTH","OBJECT_NAME":"STARLINK-1522","APOAPSIS":"548.042","MEAN_MOTION_DOT":"-0.00000430","REV_AT_EPOCH":"11749","MEAN_MOTION_DDOT":"0.0000000000000","OBJECT_ID":"2020-055A","PERIOD":"95.593","MEAN_ANOMALY":"272.7985","NORAD_CAT_ID":"46027","RCS_SIZE":"LARGE","ELEMENT_SET_NO":"999","MEAN_ELEMENT_THEORY":"SGP4","OBJECT_TYPE":"PAYLOAD","DECAY_DATE":null,"SEMIMAJOR_AXIS":"6925.367","ARG_OF_PERICENTER":"87.3138","ECCENTRICITY":"0.00011690","PERIAPSIS":"546.423","TIME_SYSTEM":"UTC","RA_OF_ASC_NODE":"67.0057","TLE_LINE1":"1 46027U 20055A   22259.88227294 -.00000430  00000-0 -99577-5 0  9994"}];
